[{"OBJECT_NAME":"ONEWEB-0081","OBJECT_ID":"2020-020F","EPOCH":"2026-03-09T21:18:42.458688","MEAN_MOTION":13.11417436,"ECCENTRICITY":0.00016241,"INCLINATION":87.8868,"RA_OF_ASC_NODE":40.809,"ARG_OF_PERICENTER":84.5037,"MEAN_ANOMALY":275.6276,"EPHEMERIS_TYPE":0,"CLASSIFICATION_TYPE":"U","NORAD_CAT_ID":45429,"ELEMENT_SET_NO":999,"REV_AT_EPOCH":28972,"BSTAR":0.00016000015,"MEAN_MOTION_DOT":6.9e-7,"MEAN_MOTION_DDOT":0},{"OBJECT_NAME":"THOR ABLESTAR DEB","OBJECT_ID":"1961-015GQ","EPOCH":"2026-03-09T05:59:28.176288","MEAN_MOTION":12.86496603,"ECCENTRICITY":0.04657242,"INCLINATION":65.7006,"RA_OF_ASC_NODE":10.7109,"ARG_OF_PERICENTER":140.0938,"MEAN_ANOMALY":338.5229,"EPHEMERIS_TYPE":0,"CLASSIFICATION_TYPE":"U","NORAD_CAT_ID":558,"ELEMENT_SET_NO":999,"REV_AT_EPOCH":3670,"BSTAR":0.00010481857,"MEAN_MOTION_DOT":-2.2e-7,"MEAN_MOTION_DDOT":0}]
